IRIDIUM 171             
1 43929U 19002H   24182.22003376  .00000000  00000+0 -69710-5 0  9997
2 43929  86.3974 293.4203 0002237  90.6650 269.4802 14.34217711286197
IRIDIUM 170             
1 43930U 19002J   24181.83398977  .00002387  00000+0  37466-3 0  9999
2 43930  86.6092 293.3993 0002362  95.0965 265.0521 14.72252521293711
IRIDIUM 167             
1 43931U 19002K   24181.79507618  .00000203  00000+0  65414-4 0  9999
2 43931  86.3967 293.3869 0002279  95.7281 264.4175 14.34216647286130
IRIDIUM 181             
1 56726U 23068S   24181.93065036  .00000777  00000+0  22382-3 0  9993
2 56726  86.8642 347.6824 0002456  93.5288 266.6194 14.43575562 58973
IRIDIUM 177             
1 56727U 23068T   24181.59629997  .00002623  00000+0  34153-3 0  9999
2 56727  86.1976 309.4675 0002666  84.8867 275.2658 14.80243753 60212
IRIDIUM 174             
1 56728U 23068U   24181.38807068  .00002713  00000+0  35351-3 0  9995
2 56728  86.1982 309.6710 0002454  96.9242 263.2258 14.80236884 60184
IRIDIUM 178             
1 56729U 23068V   24181.92346674  .00003090  00000+0  40316-3 0  9993
2 56729  86.5788 327.4859 0002136  97.2552 262.8912 14.80240180 60265
IRIDIUM 179             
1 56730U 23068W   24181.44483073  .00001174  00000+0  15113-3 0  9995
2 56730  86.6795 331.9792 0002202  97.1969 262.9503 14.80232898 60193
